{
  "norad_id": 61861,
  "name": "STARLINK-32415",
  "history": [
    {
      "epoch": "2026-03-28T19:55:54.177888Z",
      "apogee_km": 483.768409231835,
      "perigee_km": 482.37997453504613,
      "latitude_deg": -2.1960924335644975e-05,
      "longitude_deg": 4.7873329912492215,
      "height_km": 483.02196118762674,
      "semi_major_axis_km": 6861.211191883441,
      "eccentricity": 0.00010118,
      "inclination_deg": 43.0041,
      "raan_deg": 130.0084,
      "arg_perigee_deg": 255.7409,
      "mean_anomaly_deg": 104.333,
      "mean_motion_rev_day": 15.27571619
    },
    {
      "epoch": "2026-03-29T03:46:40.655136Z",
      "apogee_km": 483.80592743208126,
      "perigee_km": 482.3143031792142,
      "latitude_deg": 1.2684281125771743e-05,
      "longitude_deg": -115.07611902989622,
      "height_km": 483.31238164697993,
      "semi_major_axis_km": 6861.1971153056475,
      "eccentricity": 0.0001087,
      "inclination_deg": 43.0021,
      "raan_deg": 128.1608,
      "arg_perigee_deg": 230.3513,
      "mean_anomaly_deg": 129.7243,
      "mean_motion_rev_day": 15.2757632
    },
    {
      "epoch": "2026-03-30T03:19:00.470496Z",
      "apogee_km": 484.09047552409356,
      "perigee_km": 481.97133520484203,
      "latitude_deg": 6.04485986262132e-06,
      "longitude_deg": -114.66319523254988,
      "height_km": 482.9302031233335,
      "semi_major_axis_km": 6861.1679053644675,
      "eccentricity": 0.00015443,
      "inclination_deg": 43.0049,
      "raan_deg": 122.623,
      "arg_perigee_deg": 263.3905,
      "mean_anomaly_deg": 96.6771,
      "mean_motion_rev_day": 15.27586075
    },
    {
      "epoch": "2026-03-30T12:43:56.196192Z",
      "apogee_km": 483.9009691426263,
      "perigee_km": 482.1018414299915,
      "latitude_deg": 4.6682731382819594e-05,
      "longitude_deg": 101.50257815725452,
      "height_km": 482.8761734403917,
      "semi_major_axis_km": 6861.138405286309,
      "eccentricity": 0.00013111,
      "inclination_deg": 43.0031,
      "raan_deg": 120.4076,
      "arg_perigee_deg": 263.7571,
      "mean_anomaly_deg": 96.3132,
      "mean_motion_rev_day": 15.27595927
    },
    {
      "epoch": "2026-03-30T19:00:34.975872Z",
      "apogee_km": 483.8822892471371,
      "perigee_km": 482.31628067745623,
      "latitude_deg": 1.0381683682554471e-05,
      "longitude_deg": 5.606552500418308,
      "height_km": 482.8715612308502,
      "semi_major_axis_km": 6861.236284962296,
      "eccentricity": 0.00011412,
      "inclination_deg": 43.0019,
      "raan_deg": 118.931,
      "arg_perigee_deg": 270.3234,
      "mean_anomaly_deg": 89.7487,
      "mean_motion_rev_day": 15.27563239
    },
    {
      "epoch": "2026-03-31T02:51:21.779712Z",
      "apogee_km": 483.94625385789186,
      "perigee_km": 482.2384938667374,
      "latitude_deg": -1.8977688215888962e-06,
      "longitude_deg": -114.25741369023771,
      "height_km": 482.8776630264959,
      "semi_major_axis_km": 6861.229373862315,
      "eccentricity": 0.00012445,
      "inclination_deg": 43.0024,
      "raan_deg": 117.0843,
      "arg_perigee_deg": 269.433,
      "mean_anomaly_deg": 90.6379,
      "mean_motion_rev_day": 15.27565547
    },
    {
      "epoch": "2026-04-01T18:05:17.087136Z",
      "apogee_km": 483.845563282468,
      "perigee_km": 482.2510238202476,
      "latitude_deg": -3.246962594405556e-05,
      "longitude_deg": 6.416706059679354,
      "height_km": 482.8374708272033,
      "semi_major_axis_km": 6861.185293551358,
      "eccentricity": 0.0001162,
      "inclination_deg": 43.0009,
      "raan_deg": 107.8501,
      "arg_perigee_deg": 269.0963,
      "mean_anomaly_deg": 90.9755,
      "mean_motion_rev_day": 15.27580268
    },
    {
      "epoch": "2026-04-02T11:21:00.182592Z",
      "apogee_km": 483.66972042320685,
      "perigee_km": 482.3866825305313,
      "latitude_deg": 2.102998962804472e-05,
      "longitude_deg": 102.71627538946535,
      "height_km": 482.84559750786565,
      "semi_major_axis_km": 6861.165201476869,
      "eccentricity": 9.35e-05,
      "inclination_deg": 43.0007,
      "raan_deg": 103.7881,
      "arg_perigee_deg": 266.3333,
      "mean_anomaly_deg": 93.7412,
      "mean_motion_rev_day": 15.27586978
    },
    {
      "epoch": "2026-04-03T17:09:58.337856Z",
      "apogee_km": 483.6532008037484,
      "perigee_km": 482.4223060529839,
      "latitude_deg": -3.820268495148828e-05,
      "longitude_deg": 7.2344929918555545,
      "height_km": 482.53921710427517,
      "semi_major_axis_km": 6861.174753428366,
      "eccentricity": 8.97e-05,
      "inclination_deg": 42.9997,
      "raan_deg": 96.7732,
      "arg_perigee_deg": 296.5122,
      "mean_anomaly_deg": 63.5637,
      "mean_motion_rev_day": 15.27583788
    },
    {
      "epoch": "2026-04-04T08:51:32.885568Z",
      "apogee_km": 483.6027971018666,
      "perigee_km": 482.57182953654683,
      "latitude_deg": -2.0982060317751617e-05,
      "longitude_deg": 127.50147645401567,
      "height_km": 482.7925381811758,
      "semi_major_axis_km": 6861.224313319207,
      "eccentricity": 7.513e-05,
      "inclination_deg": 43.0002,
      "raan_deg": 93.0786,
      "arg_perigee_deg": 277.9101,
      "mean_anomaly_deg": 82.1665,
      "mean_motion_rev_day": 15.27567237
    },
    {
      "epoch": "2026-04-05T06:49:43.550976Z",
      "apogee_km": 483.2593589904918,
      "perigee_km": 482.71595791754226,
      "latitude_deg": -1.6445766464384134e-05,
      "longitude_deg": 151.88638036716253,
      "height_km": 482.95141097133865,
      "semi_major_axis_km": 6861.124658454017,
      "eccentricity": 3.96e-05,
      "inclination_deg": 42.9983,
      "raan_deg": 87.9102,
      "arg_perigee_deg": 134.0344,
      "mean_anomaly_deg": 226.054,
      "mean_motion_rev_day": 15.27600518
    },
    {
      "epoch": "2026-04-06T00:05:26.604096Z",
      "apogee_km": 484.1293206486189,
      "perigee_km": 481.9075412969605,
      "latitude_deg": 2.7685568300382458e-05,
      "longitude_deg": -111.81478533353487,
      "height_km": 482.37780143140844,
      "semi_major_axis_km": 6861.155430972789,
      "eccentricity": 0.00016191,
      "inclination_deg": 43.0006,
      "raan_deg": 83.8473,
      "arg_perigee_deg": 292.0773,
      "mean_anomaly_deg": 67.9907,
      "mean_motion_rev_day": 15.27590241
    },
    {
      "epoch": "2026-04-07T07:28:34.694688Z",
      "apogee_km": 483.73059789980834,
      "perigee_km": 482.37592449463773,
      "latitude_deg": -3.242527309391271e-05,
      "longitude_deg": 128.72827638031077,
      "height_km": 483.21325519431184,
      "semi_major_axis_km": 6861.190261197223,
      "eccentricity": 9.872e-05,
      "inclination_deg": 43.0019,
      "raan_deg": 76.4631,
      "arg_perigee_deg": 235.5008,
      "mean_anomaly_deg": 124.575,
      "mean_motion_rev_day": 15.27578609
    },
    {
      "epoch": "2026-04-08T14:51:42.029280Z",
      "apogee_km": 484.52448957004617,
      "perigee_km": 481.6788594421805,
      "latitude_deg": -4.965850272308508e-06,
      "longitude_deg": 9.273989556620815,
      "height_km": 483.0660346128003,
      "semi_major_axis_km": 6861.238674506113,
      "eccentricity": 0.00020737,
      "inclination_deg": 43.0009,
      "raan_deg": 69.0783,
      "arg_perigee_deg": 262.445,
      "mean_anomaly_deg": 97.6166,
      "mean_motion_rev_day": 15.27562441
    },
    {
      "epoch": "2026-04-09T06:33:16.288416Z",
      "apogee_km": 484.66307325596426,
      "perigee_km": 481.5261181704045,
      "latitude_deg": 2.0472896930502302e-05,
      "longitude_deg": 129.54478587613232,
      "height_km": 482.72897982546056,
      "semi_major_axis_km": 6861.231595713184,
      "eccentricity": 0.0002286,
      "inclination_deg": 43.0002,
      "raan_deg": 65.3863,
      "arg_perigee_deg": 275.2322,
      "mean_anomaly_deg": 84.8269,
      "mean_motion_rev_day": 15.27564805
    },
    {
      "epoch": "2026-04-10T06:05:37.512096Z",
      "apogee_km": 484.29105098266336,
      "perigee_km": 481.870687767062,
      "latitude_deg": 4.9463739017177576e-05,
      "longitude_deg": 129.9498602943461,
      "height_km": 483.05656905898985,
      "semi_major_axis_km": 6861.217869374862,
      "eccentricity": 0.00017638,
      "inclination_deg": 43.0017,
      "raan_deg": 59.8465,
      "arg_perigee_deg": 260.5562,
      "mean_anomaly_deg": 99.5091,
      "mean_motion_rev_day": 15.27569389
    },
    {
      "epoch": "2026-04-11T21:19:32.404800Z",
      "apogee_km": 484.0062204817241,
      "perigee_km": 482.11390233218845,
      "latitude_deg": 2.104233450891245e-05,
      "longitude_deg": -109.37089025905651,
      "height_km": 482.80232742788087,
      "semi_major_axis_km": 6861.197061406956,
      "eccentricity": 0.0001379,
      "inclination_deg": 43.0014,
      "raan_deg": 50.6157,
      "arg_perigee_deg": 272.0943,
      "mean_anomaly_deg": 87.9751,
      "mean_motion_rev_day": 15.27576338
    },
    {
      "epoch": "2026-04-13T06:16:49.818144Z",
      "apogee_km": 484.00265796536405,
      "perigee_km": 482.1309215715155,
      "latitude_deg": 3.8235726783119366e-05,
      "longitude_deg": 107.19806487986419,
      "height_km": 482.8796079850864,
      "semi_major_axis_km": 6861.2037897684395,
      "eccentricity": 0.0001364,
      "inclination_deg": 43.0019,
      "raan_deg": 42.8606,
      "arg_perigee_deg": 267.7989,
      "mean_anomaly_deg": 92.2707,
      "mean_motion_rev_day": 15.27574091
    },
    {
      "epoch": "2026-04-14T12:05:48.015744Z",
      "apogee_km": 483.8225847691074,
      "perigee_km": 482.3004964848542,
      "latitude_deg": -2.8575730007258788e-05,
      "longitude_deg": 11.714298402351421,
      "height_km": 482.55743317364784,
      "semi_major_axis_km": 6861.1985406269805,
      "eccentricity": 0.00011092,
      "inclination_deg": 43.0014,
      "raan_deg": 35.8439,
      "arg_perigee_deg": 291.6433,
      "mean_anomaly_deg": 68.43,
      "mean_motion_rev_day": 15.27575844
    }
  ]
}